{
  "type": "FeatureCollection",
  "name": "Babylon 570 BCE schematic starter",
  "features": [
    {
      "type": "Feature",
      "properties": {
        "id": "TERRAIN-CONTEXT",
        "name": "Schematic alluvial plain",
        "template": "terrain",
        "review_status": "needs_review",
        "evidence_class": "C",
        "confidence": 0.15,
        "date_start": -604,
        "date_end": -562,
        "evidence_ids": [],
        "params": {"height": 0.25, "z": -0.25, "material": "sand"},
        "notes": "Neutral context slab only. No claim of ancient topography."
      },
      "geometry": {"type": "Polygon", "coordinates": [[[-350,-350],[350,-350],[350,500],[-350,500],[-350,-350]]]}
    },
    {
      "type": "Feature",
      "properties": {
        "id": "EUPHRATES-SCHEMATIC",
        "name": "Schematic Euphrates course",
        "template": "water",
        "review_status": "needs_review",
        "evidence_class": "C",
        "confidence": 0.20,
        "date_start": -604,
        "date_end": -562,
        "evidence_ids": ["EVID-SCHEMATIC-PLACEMENT"],
        "params": {"height": 0.08, "z": 0.02, "material": "water"},
        "notes": "River alignment is a preview placeholder."
      },
      "geometry": {"type": "Polygon", "coordinates": [[[245,-350],[310,-350],[302,500],[252,500],[245,-350]]]}
    },
    {
      "type": "Feature",
      "properties": {
        "id": "ETEMENANKI-VARIANT-DEMO",
        "name": "Etemenanki interpretive variant",
        "template": "ziggurat",
        "review_status": "needs_review",
        "evidence_class": "B",
        "confidence": 0.55,
        "date_start": -604,
        "date_end": -562,
        "evidence_ids": ["EVID-ETEM-BASE","EVID-ETEM-CORE","EVID-ETEM-HEIGHT","EVID-SCHEMATIC-PLACEMENT"],
        "params": {
          "material": "mudbrick",
          "stage_count": 7,
          "base_size": 91.5,
          "stage_sizes": [91.5,72,58,46,35,25,17],
          "stage_heights": [12,10,9,8,7,6,5],
          "summit_shrine": {"width": 14,"length": 12,"height": 7,"material": "plaster"},
          "stairs": {"steps": 24,"length": 58,"width": 11,"height": 12},
          "rotation_degrees": 0
        },
        "notes": "Preview combines measured lower dimensions with explicitly interpretive upper massing."
      },
      "geometry": {"type": "Point", "coordinates": [-105,-25]}
    },
    {
      "type": "Feature",
      "properties": {
        "id": "PROCESSIONAL-WAY-DEMO",
        "name": "Processional Way preview",
        "template": "processional",
        "review_status": "needs_review",
        "evidence_class": "B",
        "confidence": 0.55,
        "date_start": -604,
        "date_end": -562,
        "evidence_ids": ["EVID-PROCESSIONAL-WIDTH","EVID-SCHEMATIC-PLACEMENT"],
        "params": {"width": 20,"height": 0.18,"z": 0.05,"material": "road"},
        "notes": "Width and local alignment need exact plan-level confirmation."
      },
      "geometry": {"type": "LineString", "coordinates": [[45,-230],[45,365]]}
    },
    {
      "type": "Feature",
      "properties": {
        "id": "ISHTAR-GATE-DEMO",
        "name": "Ishtar Gate preview",
        "template": "gate",
        "review_status": "needs_review",
        "evidence_class": "B",
        "confidence": 0.60,
        "date_start": -604,
        "date_end": -562,
        "evidence_ids": ["EVID-ISHTAR-DIMENSIONS","EVID-ISHTAR-MATERIAL","EVID-SCHEMATIC-PLACEMENT"],
        "params": {"front_width": 28,"front_depth": 13,"main_width": 22,"main_depth": 33,"passage_width": 5.5,"separation": 14,"height": 17,"material": "blue_glaze"},
        "notes": "Simplified volumetric gate. Decorative animal placement is not generated by this starter."
      },
      "geometry": {"type": "Point", "coordinates": [45,165]}
    },
    {
      "type": "Feature",
      "properties": {
        "id": "INNER-WALL-DEMO",
        "name": "Schematic inner wall",
        "template": "city_wall",
        "review_status": "needs_review",
        "evidence_class": "C",
        "confidence": 0.18,
        "date_start": -604,
        "date_end": -562,
        "evidence_ids": ["EVID-WALL-COMPARATIVE"],
        "params": {"width": 8,"height": 12,"material": "mudbrick","cyclic": true},
        "notes": "Preview circuit only."
      },
      "geometry": {"type": "LineString", "coordinates": [[-285,-270],[215,-270],[215,420],[-285,420],[-285,-270]]}
    },
    {
      "type": "Feature",
      "properties": {
        "id": "PALACE-MASS-DEMO",
        "name": "Schematic palace mass",
        "template": "palace",
        "review_status": "needs_review",
        "evidence_class": "C",
        "confidence": 0.20,
        "date_start": -604,
        "date_end": -562,
        "evidence_ids": ["EVID-SCHEMATIC-PLACEMENT"],
        "params": {"height": 9,"material": "plaster"},
        "notes": "Single mass for pipeline demonstration, not a palace plan."
      },
      "geometry": {"type": "Polygon", "coordinates": [[[78,70],[205,70],[205,150],[78,150],[78,70]]]}
    },
    {
      "type": "Feature",
      "properties": {
        "id": "RESIDENTIAL-WEST-DEMO",
        "name": "Schematic western residential district",
        "template": "residential_cluster",
        "review_status": "needs_review",
        "evidence_class": "C",
        "confidence": 0.20,
        "date_start": -604,
        "date_end": -562,
        "evidence_ids": ["EVID-HOUSE-COMPARATIVE"],
        "params": {"count": 65,"seed": 57001,"material": "mudbrick","width_range": [6,15],"depth_range": [7,18],"height_range": [3.5,7.5],"spacing": 1.7},
        "notes": "Procedural urban texture only."
      },
      "geometry": {"type": "Polygon", "coordinates": [[[-270,-245],[-145,-245],[-145,390],[-270,390],[-270,-245]]]}
    },
    {
      "type": "Feature",
      "properties": {
        "id": "RESIDENTIAL-CENTRAL-DEMO",
        "name": "Schematic central residential district",
        "template": "residential_cluster",
        "review_status": "needs_review",
        "evidence_class": "C",
        "confidence": 0.20,
        "date_start": -604,
        "date_end": -562,
        "evidence_ids": ["EVID-HOUSE-COMPARATIVE"],
        "params": {"count": 58,"seed": 57002,"material": "mudbrick","width_range": [6,14],"depth_range": [7,16],"height_range": [3.5,7],"spacing": 1.5},
        "notes": "Procedural urban texture only."
      },
      "geometry": {"type": "Polygon", "coordinates": [[[-40,-245],[15,-245],[15,390],[-40,390],[-40,-245]]]}
    },
    {
      "type": "Feature",
      "properties": {
        "id": "RESIDENTIAL-EAST-DEMO",
        "name": "Schematic eastern residential district",
        "template": "residential_cluster",
        "review_status": "needs_review",
        "evidence_class": "C",
        "confidence": 0.20,
        "date_start": -604,
        "date_end": -562,
        "evidence_ids": ["EVID-HOUSE-COMPARATIVE"],
        "params": {"count": 45,"seed": 57003,"material": "mudbrick","width_range": [6,14],"depth_range": [7,17],"height_range": [3.5,7.2],"spacing": 1.6},
        "notes": "Procedural urban texture only."
      },
      "geometry": {"type": "Polygon", "coordinates": [[[75,-245],[205,-245],[205,50],[75,50],[75,-245]]]}
    }
  ]
}
